"Property","Type","Units","Manager","Assistant Mgr","Compliance Specialist","Address","City","State","Zip","Office","Fax","Manager Email","RPM","RVP","Latitude","Longitude","Created","Created By","Last Modified","Modified By"
"140 on Royal","C","48","Bethany Sizemore","","NA","140 Royal Drive","Madison","AL","35758","256-772-6736","256-585-6772","140onroyal@gatewaymgt.com","Shirley Greer","Paula Hall","0","0","2025-08-01T17:54:09Z","Alan Branch","2025-09-11T21:43:31Z","Stevens Elise Key"
"Abbington at Summit","55","52","Pam Ford","","Tammy","951 Old Grants Mill Road","Birmingham","AL","35210","205-206-7111","(763) 290-1918","abbingtonsummit@gatewaymgt.com","T'arra Brown","Erin Loupe","33.53161","-86.6901","2025-08-01T17:54:09Z","Alan Branch","2025-09-12T15:16:59Z","Stevens Elise Key"
"Abbington Reserve Apartments","F","238","Terrell Treadwell","Lettice Kinsey","Tammy","3051 Lumby Drive","Decatur","GA","30034","678-608-4988","(678) 608-4988","abbingtonreserve@gatewaymgt.com","Brenda Jackson","Toni Raymond","0","0","2025-08-01T17:54:09Z","Alan Branch","2025-09-12T15:18:41Z","Stevens Elise Key"
"Agape - Lease up","F","222","Aaron Lawrence","Paula Smith","Amber","1590 Agape Way","Decatur","GA","30035","470-571-3001","","agape@gatewaymgt.com","Arglidian McElheney","Toni Raymond","0","0","2025-08-01T17:54:09Z","Alan Branch","2025-09-30T17:20:20Z","Amy Beans"
"Alexander Village","55","48","Charity Wright","Tracey Smith","Kimberly","200 Alexander Village","Florence","AL","35634","256-766-0048","256-768-5833","alexandervillage@gatewaymgt.com","Shirley Greer","Paula Hall","34.88155","-87.6773","2025-08-01T17:54:09Z","Alan Branch","2025-09-12T15:23:22Z","Stevens Elise Key"
"Americus Garden Apts.","F","44","TBD","TBD","Becky","730 S. MLK Blvd.","Americus","GA","31719","229-924-7475","229-213-3534","americus@gatewaymgt.com","Chantelle Boone","Toni Raymond","36.16229","-115.161","2025-08-01T17:54:09Z","Alan Branch","2025-09-24T18:33:10Z","Amy Beans"
"Atmore Senior","55","50","Ashley Thomas","","Tammy","1100 McRae Street","Atmore","AL","36502","251-973-6000","(251) 416-8057","atmoresenior@gatewaymgt.com","Kat Butts","Paula Hall","34.24815","-77.9379","2025-08-01T17:54:09Z","Alan Branch","2025-09-19T19:14:20Z","Amy Beans"
"Augustine, The","55","104","Shellie Fennel","Betty Hutto","Paulette","825 Booth Road","Warner Robins","GA","31088","478-366-2750","","theaugustine@gatewaymgt.com","Jonathan Marrero","Toni Raymond","32.59198","-83.6062","2025-08-01T17:54:09Z","Alan Branch","2025-09-12T16:45:50Z","Stevens Elise Key"
"Autumn Ridge","F","48","Michelle Laughlin","","Becky","300 Autumn Ridge Drive","Jacksonville","NC","28546","910 938-9800","(910) 420-4548","autumnridge@gatewaymgt.com","Melissa Valley","Melissa Valley","42.25038","-122.786","2025-08-01T17:54:09Z","Alan Branch","2025-09-12T15:27:30Z","Stevens Elise Key"
"Bailey Springs","55","28","Demetria Byrd","TBD","Becky","939 Bailey Springs Drive","Lincolnton","NC","28092","704-736-1222","(980) 281-2007","baileysprings@gatewaymgt.com","Melissa Valley","Melissa Valley","35.49307","-81.238","2025-08-01T17:54:09Z","Alan Branch","2025-09-12T15:29:00Z","Stevens Elise Key"
"Baytown Village","62","48","Reagan Abner","","Gail","4291 McCrary Road","Semmes","AL","36575","251-338-0634","(251) 973-6291","baytown@gatewaymgt.com","Kat Butts","Paula Hall","36.05389","-86.4206","2025-08-01T17:54:09Z","Alan Branch","2025-09-12T15:29:44Z","Stevens Elise Key"
"Belle Isle Apts.","55","28","TBD","","Tammy","18720 Hwy 90","Robertsdale","AL","36567","251-947-4055","866-645-1882","belleisle@gatewaymgt.com","Kat Butts","Paula Hall","30.04923","-94.72","2025-08-01T17:54:09Z","Alan Branch","2025-09-12T15:30:23Z","Stevens Elise Key"
"Blue Springs","F","40","Michelle Laughlin","","Becky","460 McDaniel Drive","Jacksonville","NC","28546","910-346-3300","(910) 673-8583","bluesprings@gatewaymgt.com","Melissa Valley","Melissa Valley","34.78666","-77.3919","2025-08-01T17:54:09Z","Alan Branch","2025-09-12T15:30:59Z","Stevens Elise Key"
"Bocage","62","58","Kathryn Holder","","Amber","909 Brandywine Ln","Norman","OK","73071","405-310-1668","","bocage@gatewaymgt.com","Diana Stoflet","Erin Loupe","39.98557","-76.7648","2025-08-01T17:54:09Z","Alan Branch","2025-09-12T15:31:36Z","Stevens Elise Key"
"Bradbury","F","40","Demetria Byrd","","Bendetta","2901 Old Conover","Newton","NC","28658","828- 465-6221","828-771-2010","bradbury@gatewaymgt.com","Melissa Valley","Melissa Valley","35.69448","-81.2307","2025-08-01T17:54:09Z","Alan Branch","2025-09-12T15:32:27Z","Stevens Elise Key"
"Brentwood Landing Apts.","F","80","Chequila Mchone","Kathy Wright","Bendetta","597 Covered Bridge Pkwy","Prattville","AL","36066","334-491-1888","334-419-1889","brentwood@gatewaymgt.com","T'arra Brown","Erin Loupe","32.47585","-86.4151","2025-08-01T17:54:10Z","Alan Branch","2025-09-12T15:34:37Z","Stevens Elise Key"
"Brentwood Landing II Apts.","F","96","Chequila Mchone","Kathy Wright","Bendetta","549 Covered Bridge Pkwy","Prattville","AL","36066","334-491-1888","334-419-1889","brentwood2@gatewaymgt.com","T'arra Brown","Erin Loupe","32.47568","-86.4125","2025-08-01T17:54:10Z","Alan Branch","2025-09-12T15:35:24Z","Stevens Elise Key"
"Bridges at Landrum","F","200","Tasha Taylor","Anique Tate","Bendetta","2944 Landrum Drive, SW","Atlanta","GA","30311","470-668-2550","","bridgesatlandrum@gatewaymgt.com","Brandi Harris","Toni Raymond","33.7042","-84.4845","2025-08-01T17:54:10Z","Alan Branch","2025-10-01T14:05:28Z","Amy Beans"
"Brook Pointe","F","192","Alexis Williams","Angelina Neal","","504 N Pierce Street","Lafayette","LA","70501","337-227-9772","","brookpointe@gatewaymgt.com","TBD","Erin Loupe","0","0","2025-08-01T17:54:10Z","Alan Branch","2025-09-29T14:20:56Z","Amy Beans"
"Brookstone Village","55","46","Effie Parker","Revonda Gardner-Bedingfield","Kimberly","705 Gardner Dr. SE","Jacksonville","AL","36265","256-782-0736","256-513-7520","brookstone@gatewaymgt.com","Anna Walters","Erin Loupe","33.80913","-85.7523","2025-08-01T17:54:10Z","Alan Branch","2025-09-12T15:37:33Z","Stevens Elise Key"
"Candler Reserve - Lease up","F","192","Keyounia Hervey","Rachel Edmondson","Paulette","2648 Candler Parkway","Decatur","GA","30032","470-579-5550","","candlerreserve@gatewaymgt.com","Arglidian McElheney","Toni Raymond","33.72813","-84.2826","2025-08-01T17:54:10Z","Alan Branch","2025-09-12T15:38:56Z","Stevens Elise Key"
"Canebreak","55","32","Kimberly Hoefler","","Tammy","4901 Amy Drive","Wilmington","NC","28403","910- 392-8101","(910) 900-4499","canebreak@gatewaymgt.com","Melissa Valley","Melissa Valley","35.2922","-80.7263","2025-08-01T17:54:10Z","Alan Branch","2025-09-12T15:39:29Z","Stevens Elise Key"
"Canter Chase","F","56","Robert Kiker","","Bendetta","1105 Clearview Avenue","Lawrenceburg","TN","38464","931-231-8222","931-201-4041","canterchase@gatewaymgt.com","Shirley Greer","Paula Hall","44.98183","-123.022","2025-08-01T17:54:10Z","Alan Branch","2025-09-12T15:40:00Z","Stevens Elise Key"
"Capstone at Barton Chapel (Trinity Manor)","F","100","Beverly Bunting","Rezeile Rodriguez","Kimberly","2375 Barton Chapel Rd","Augusta","GA","30906","706-798-3183","706-723-8433","bartonchapel@gatewaymgt.com","Sharon Waldo","Melissa Morefield-Valley","33.43652","-82.088","2025-08-01T17:54:10Z","Alan Branch","2025-09-12T15:41:05Z","Stevens Elise Key"
"Carolina Oaks","F","48","TBD","","Paulette","1302 Scarlet Lane","Myrtle Beach","SC","29577","843-712-2028","843-353-0200","carolinaoaks@gatewaymgt.com","Melissa Valley","Melissa Valley","-43.4803","172.6113","2025-08-01T17:54:10Z","Alan Branch","2025-09-30T17:12:56Z","Amy Beans"
"Cedar Glades","F","64","Katie Bronikowski","","Gail","500 Cedar Glades Circle","Shelbyville","TN","37160","931-735-6560","931-994-5501","cedarglades@gatewaymgt.com","Anna Walters","Erin Loupe","0","0","2025-08-01T17:54:10Z","Alan Branch","2025-09-12T15:42:23Z","Stevens Elise Key"
"Cedar Hollow Family","F","29","Pamela Minix","","Kimberly","20879 Red Cedar Drive","Harrah","OK","73045","405-708-6055","","cedarhollow@gatewaymgt.com","Diana Stoflet","Erin Loupe","0","0","2025-08-01T17:54:10Z","Alan Branch","2025-09-12T15:42:57Z","Stevens Elise Key"
"Cherokee Meadows","62","48","Colette Anderson","","Amber","1510 E. Reading St","Tulsa","OK","74106","918-398-0079","","cherokee@gatewaymgt.com","Diana Stoflet","Erin Loupe","36.17973","-95.972","2025-08-01T17:54:10Z","Alan Branch","2025-09-12T14:45:44Z","Stevens Elise Key"
"Cherry Ridge Independent Living","55","56","Rachelle McPherson","","Bendetta","1100 Jeff Germany Pkwy","Birmingham","AL","35214","205-791-6789","(205) 623-5591","cherryridge@gatewaymgt.com","T'arra Brown","Erin Loupe","33.56188","-86.8692","2025-08-01T17:54:10Z","Alan Branch","2025-09-12T15:44:56Z","Stevens Elise Key"
"Cherry Ridge Village Apts","55","56","Felicia Wiley","","Bendetta","1001 Cherry Avenue","Birmingham","AL","35214","205-868-3800","","cherryvillage@gatewaymgt.com","T'arra Brown","Erin Loupe","35.29443","-101.849","2025-08-01T17:54:10Z","Alan Branch","2025-09-12T15:45:28Z","Stevens Elise Key"
"Cherry Woods","55","52","Felicia Wiley","","Bendetta","1101 Jeff Germany Pkwy","Birmingham","AL","35214","205-729-6200","(205) 729-6200","cherrywoods@gatewaymgt.com","T'arra Brown","Erin Loupe","33.56051","-86.8704","2025-08-01T17:54:10Z","Alan Branch","2025-09-12T15:45:55Z","Stevens Elise Key"
"Clement Belle Farm - Lease up","F","64","Stacey Torrance","","Paulette","1000 Belle Farm Loop","Brunswick","GA","31523","912-574-3600","","clementbellefarm@gatewaymgt.com","Ciera Armstead | Tere Dykes","Paula Hall","0","0","2025-08-01T17:54:10Z","Alan Branch","2025-09-30T19:33:03Z","Amy Beans"
"Cobblestone Village","55","56","Nickita Roberts","","Gail","35 Cobblestone Drive","Clanton","AL","35045","205-810-1588","205-286-6685","cobblestone@gatewaymgt.com","Trisha Chauvin","Erin Loupe","43.81186","-79.3694","2025-08-01T17:54:10Z","Alan Branch","2025-09-12T15:47:30Z","Stevens Elise Key"
"College Square","F","61","Jennifer Glover","","Kimberly","1207 Edwards Street","Fort Valley","GA","31030","478-825-2140","478-825-9987","college@gatewaymgt.com","Chantelle Boone","Toni Raymond","38.18889","-99.1139","2025-08-01T17:54:10Z","Alan Branch","2025-09-12T15:48:15Z","Stevens Elise Key"
"Colony West","F","76","Sade Davis","","Kimberly","5284 Bloomfield Road","Macon","GA","31206","478-788-3136","478-788-5216","colony@gatewaymgt.com","Chantelle Boone","Toni Raymond","53.80435","-3.04174","2025-08-01T17:54:10Z","Alan Branch","2025-09-12T15:48:46Z","Stevens Elise Key"
"Coosa Village Apts","55","56","TBD","","Tammy","58 Elizabeth Lane","Sylacauga","AL","35150","256-369-2500","256-585-6019","coosavillage@gatewaymgt.com","Trisha Chauvin","Erin Loupe","41.05401","-74.1776","2025-08-01T17:54:10Z","Alan Branch","2025-09-12T15:49:21Z","Stevens Elise Key"
"Cottage MWC I","62","38","Christy Sandoval","","Tammy","1401 Stonecrop Drive","Midwest City","OK","73110","405-708-6054","","cottagemwc@gatewaymgt.com","Diana Stoflet","Erin Loupe","37.98908","-84.3941","2025-08-01T17:54:10Z","Alan Branch","2025-09-12T15:50:18Z","Stevens Elise Key"
"Cottage MWC II","62","42","Christy Sandoval","","Tammy","1401 Stonecrop Drive","Midwest City","OK","73110","405-708-6054","","cottagemwc@gatewaymgt.com","Diana Stoflet","Erin Loupe","37.98908","-84.3941","2025-08-01T17:54:10Z","Alan Branch","2025-09-12T15:50:40Z","Stevens Elise Key"
"Cottage Park Guthrie","RD-62","34","Raven Carreira","","Amber","700 Cottage Park Circle","Guthrie","OK","73044","405-293-9220","","cottageparkguthrie@gatewaymgt.com","Diana Stoflet","Erin Loupe","34.9357","-95.7845","2025-08-01T17:54:10Z","Alan Branch","2025-09-12T15:51:05Z","Stevens Elise Key"
"Cottage Park McAlester","62","40","Colette Anderson","","Kimberly","921 Cottage Park Circle","McAlester","OK","74501","918-302-9955","","cottagemcalester@gatewaymgt.com","Diana Stoflet","Erin Loupe","34.9359","-95.785","2025-08-01T17:54:10Z","Alan Branch","2025-09-12T15:51:28Z","Stevens Elise Key"
"Cottage Park Newcastle","62","40","Kathryn Holder","","Amber","567 N. Walker Dr","Newcastle","OK","73065","405-708-6053","","cottagenewcastle@gatewaymgt.com","Diana Stoflet","Erin Loupe","38.80822","-94.4651","2025-08-01T17:54:10Z","Alan Branch","2025-09-12T15:51:54Z","Stevens Elise Key"
"Cottage Park Shawnee","62","32","Pamela Minix","","Amber","1625 Grace Court","Shawnee","OK","74804","405-896-3158","","cottageshawnee@gatewaymgt.com","Diana Stoflet","Erin Loupe","40.69421","-73.9973","2025-08-01T17:54:11Z","Alan Branch","2025-09-12T15:52:20Z","Stevens Elise Key"
"Covington Mill Village","55","122","Dwahaun Ryans","Leyah Britt","Bendetta","11101 Covington Bypass Road","Covington","GA","30014","470-374-9300","(470) 374-9300","covingtonmillvillage@gatewaymgt.com","Brandi Harris","Toni Raymond","33.56911","-83.8511","2025-08-01T17:54:11Z","Alan Branch","2025-09-30T17:19:33Z","Amy Beans"
"Creekview","55","56","Charity Wright","Tracey Smith","Tammy","104 Creekview Village Pl.","Florence","AL","35633","256-712-2726","(256) 712-2612","creekview@gatewaymgt.com","Shirley Greer","Paula Hall","44.51865","-103.871","2025-08-01T17:54:11Z","Alan Branch","2025-09-12T15:59:51Z","Stevens Elise Key"
"Cross Creek Landing","62","44","Raven Carreira","","Tammy","1919 NW 142nd St","Oklahoma City","OK","73134","405-896-3159","","crosscreek@gatewaymgt.com","Diana Stoflet","Erin Loupe","25.90288","-80.2619","2025-08-01T17:54:11Z","Alan Branch","2025-09-12T16:01:06Z","Stevens Elise Key"
"Crossings at Conyers, The","55","122","Schevette Glinton","Leyah Britt","Paulette","2001 W Iris Drive SE","Conyers","GA","30013","470-822-0200","(470) 822-0200","crossingsatconyers@gatewaymgt.com","Brandi Harris","Toni Raymond","33.63603","-83.9817","2025-08-01T17:54:11Z","Alan Branch","2025-09-24T18:20:59Z","Amy Beans"
"Crosswinds","F","72","Shellie Fennel","Betty Hutto","Amber","801 Booth Road","Warner Robins","GA","31088","478-366-2660","","crosswinds@gatewaymgt.com","Jonathan Marrero","Toni Raymond","32.59275","-83.6062","2025-08-01T17:54:11Z","Alan Branch","2025-09-12T16:49:00Z","Stevens Elise Key"
"Cypress Trace","55","40","Marilyn Smith","","Bendetta","904 Clark Avenue","Bay Minette","AL","36507","251-580-0005","(251) 265-2812","cypresstrace@gatewaymgt.com","Kat Butts","Paula Hall","38.62414","-90.1958","2025-08-01T17:54:11Z","Alan Branch","2025-09-12T16:49:43Z","Stevens Elise Key"
"Dogwood Trail","F","64","Monquie Williams","","Paulette","108 Marie Road","Albany","GA","31705","229-715-7199","229-715-7199","dogwoodtrail@gatewaymgt.com","Ciera Armstead | Tere Dykes","Paula Hall","41.36939","-75.8796","2025-08-01T17:54:13Z","Alan Branch","2025-09-30T19:33:26Z","Amy Beans"
"Double Creek Apts","55","48","Charity Wright","Tracey Smith","Bendetta","4704 Chisholm Road","Florence","AL","35630","256-718-1427","256-513-7499","doublecreek@gatewaymgt.com","Shirley Greer","Paula Hall","34.88136","-87.6727","2025-08-01T17:54:13Z","Alan Branch","2025-09-12T14:52:03Z","Stevens Elise Key"
"Drakes Landing","F","216","Indira Morcol","Destinie Coston","","801 N. Ardenwood Drive","Baton Rouge","LA","70806","225-240-4493","","drakeslanding@gatewaymgt.com","Tina Ard","Erin Loupe","0","0","2025-08-01T17:54:13Z","Alan Branch","2025-09-30T17:18:09Z","Amy Beans"
"Dugan Square","55","42","Pam Ford","","Amber","400 Dugan Court","Pratt City","AL","35214","205-868-3668","205-208-9493","dugan@gatewaymgt.com","T'arra Brown","Erin Loupe","29.58139","-90.6731","2025-08-01T17:54:13Z","Alan Branch","2025-09-12T16:53:10Z","Stevens Elise Key"
"Eagles Landing Apts","F","64","Bethany Sizemore","Antoinette Coleman","Paulette","162 Royal Drive","Madison","AL","35758","256-325-1907","256-513-7505","eagleslanding@gatewaymgt.com","Shirley Greer","Paula Hall","53.77391","-2.71823","2025-08-01T17:54:13Z","Alan Branch","2025-09-12T16:53:51Z","Stevens Elise Key"
"East Oaks Apts.","F","40","TBD","TBD","Tammy","252 Lonnie Lane","Americus","GA","31709","229-928-5072","229-207-0872","eastoaks@gatewaymgt.com","Chantelle Boone","Toni Raymond","33.63229","-98.6885","2025-08-01T17:54:13Z","Alan Branch","2025-09-24T16:39:36Z","Amy Beans"
"Eastside Family","F","28","Elizabeth Stehno","","Amber","1002 Northridge Ln","Enid","OK","73701","580-377-1497","","eastsidefamily@gatewaymgt.com","Diana Stoflet","Erin Loupe","0","0","2025-08-01T17:54:13Z","Alan Branch","2025-09-12T14:53:27Z","Stevens Elise Key"
"Forest Mill Apts","F","80","TBD","Mekita Allen","Kimberly","1406 Forest Mill Lane","West Point","GA","31833","706-862-1120","706-775-8420","forestmill@gatewaymgt.com","Jonathan Marrero","Toni Raymond","30.19802","-81.6369","2025-08-01T17:54:13Z","Alan Branch","2025-09-22T21:53:23Z","Amy Beans"
"Forest Ridge Heights","F","37","Elizabeth Stehno","","Gail","1002 Northridge Ln","Enid","OK","73701","580-377-1497","","forestheights@gatewaymgt.com","Diana Stoflet","Erin Loupe","37.32422","-79.9989","2025-08-01T17:54:13Z","Alan Branch","2025-09-12T14:53:52Z","Stevens Elise Key"
"French Farms","55","56","Porshis Brooks","","Amber","20766 Victoria Way","Athens","AL","35611","256-867-4356","256-567-3475","frenchfarms@gatewaymgt.com","Shirley Greer","Paula Hall","30.28635","-95.6234","2025-08-01T17:54:13Z","Alan Branch","2025-09-16T16:04:37Z","Amy Beans"
"Garden Lakes","F","288","Jakita Moore","Charmaine Weston","Kimberly","1307 Mason Road","Columbia","SC","29203","803-999-5801","","gardenlakes@gatewaymgt.com","Natashia Thompson","Melissa Valley","34.06992","-81.0028","2025-08-01T17:54:13Z","Alan Branch","2025-09-12T17:53:28Z","Stevens Elise Key"
"Garden Oaks - Lease up","F","288","Ornela Marion","Latice Jackson","Gail","2000 Salem Road","Beaufort","SC","29902","843-605-9444","","gardenoaks@gatewaymgt.com","Natashia Thompson","Melissa Valley","43.89803","-79.0309","2025-08-01T17:54:13Z","Alan Branch","2025-09-12T21:38:50Z","Amy Beans"
"Gateway at Rossville","F","156","Sherry Wilson","Nicole Bennett","Amber","2563 Happy Valley Road","Rossville","GA","30741","762-325-3550","","rossville@gatewaymgt.com","Anna Walters","Erin Loupe","35.06171","-90.0485","2025-08-01T17:54:13Z","Alan Branch","2025-09-12T17:55:08Z","Stevens Elise Key"
"Gateway at the Green","F","72","Anisha Anderson","","Bendetta","39 Webb Road","Greenville","SC","29601","864-867-1901","","gatewayatthegreen@gatewaymgt.com","Sharon Waldo","Melissa Valley","41.14165","-73.3427","2025-08-01T17:54:13Z","Alan Branch","2025-09-12T17:55:41Z","Stevens Elise Key"
"Glencoe Trace Apts.","62","72","Jody Head","","Gail","1624 Hallmark Drive","Griffin","GA","30223","770-228-9115","678-967-3422","glencoe@gatewaymgt.com","Brenda Jackson","Toni Raymond","29.51588","-98.4723","2025-08-01T17:54:13Z","Alan Branch","2025-09-12T17:56:17Z","Stevens Elise Key"
"Griffin Village","F","150","Jody Head","LaTica Broughton","Becky","2101 Williamson Road","Griffin","GA","30224","678-408-8050","","griffinvillage@gatewaymgt.com","Brenda Jackson","Toni Raymond","0","0","2025-08-01T17:54:13Z","Alan Branch","2025-09-12T17:57:02Z","Stevens Elise Key"
"Hamilton Place Apts","55","56","Susan Moncrief","","Paulette","111 Todd Trail","Millbrook","AL","36054","334-290-7744","334-513-8689","hamilton@gatewaymgt.com","Kat Butts","Paula Hall","36.38299","-92.1681","2025-08-01T17:54:13Z","Alan Branch","2025-09-12T17:57:35Z","Stevens Elise Key"
"Heatherwood Apts","F","36","TBD","","Kimberly","1621 Heatherwood Dr.","Alexander City","AL","35010","256-329-9581","256-329-9581","heatherwood@gatewaymgt.com","Trisha Chauvin","Erin Loupe","42.29729","-83.295","2025-08-01T17:54:13Z","Alan Branch","2025-09-12T17:58:22Z","Stevens Elise Key"
"Heritage Townhomes","F","240","Brandon Alexander","Tamika Bunnell","Amber","6554 Chupp Road","Stonecrest","GA","30058","770-756-8699","770-756-8699","heritagetownhomes@gatewaymgt.com","Brenda Jackson","Toni Raymond","33.7066","-84.1242","2025-08-01T17:54:13Z","Alan Branch","2025-09-12T17:58:58Z","Stevens Elise Key"
"Heritage Vista Apts.","F","64","Sabrina Holsey","","Amber","3029 Heritage Place","Milledgeville","GA","31061","478-295-2565","478-997-8966","heritage@gatewaymgt.com","Brandi Harris","Toni Raymond","-37.8283","144.7083","2025-08-01T17:54:13Z","Alan Branch","2025-09-24T18:22:30Z","Amy Beans"
"Heron Lake Apts.","F","88","Amanda Cooper","TBD","Tammy","1800 Eastwind Road","Valdosta","GA","31602","229 257-0844","229-375-5911","heronlake@gatewaymgt.com","Tere Dykes","Paula Hall","30.87667","-83.2616","2025-08-01T17:54:13Z","Alan Branch","2025-09-12T18:00:08Z","Stevens Elise Key"
"Heron Lake II Apts.","F","64","Amanda Cooper","TBD","Tammy","Eastwind Road","Valdosta","GA","31602","229-257-0844","229-375-5911","heronlake@gatewaymgt.com","Tere Dykes","Paula Hall","30.87667","-83.2616","2025-08-01T17:54:13Z","Alan Branch","2025-09-12T18:00:37Z","Stevens Elise Key"
"Hickory Run I Apts.","F","42","Effie Parker","Revonda Gardner-Bedingfield","Paulette","720 Lynn Drive SE","Jacksonville","AL","36265","256-782-0736","256-782-0736","hickory@gatewaymgt.com","Anna Walters","Erin Loupe","33.80802","-85.756","2025-08-01T17:54:14Z","Alan Branch","2025-09-12T14:56:55Z","Stevens Elise Key"
"Hickory Run II Apts.","F","40","Effie Parker","Revonda Gardner-Bedingfield","Paulette","710 Lynn Drive SE","Jacksonville","AL","36265","256-782-0736","256-782-0736","hickory@gatewaymgt.com","Anna Walters","Erin Loupe","33.80802","-85.756","2025-08-01T17:54:14Z","Alan Branch","2025-09-12T14:56:59Z","Stevens Elise Key"
"High Point Senior","F","56","Stephanie Burton","TBD","Gail","22572 Christi Smith Rd.","Andalusia","AL","36421","334-817-7952","","highpointsenior@gatewaymgt.com","Trisha Chauvin","Erin Loupe","37.9645","-76.7567","2025-08-01T17:54:14Z","Alan Branch","2025-09-12T18:01:41Z","Stevens Elise Key"
"Highland Estates of Rome","55","84","Nadia Roper","","Paulette","179 Woodrow Wilson Way","Rome","GA","30165","706-378-2255","706-622-4919","highlandestates@gatewaymgt.com","Anna Walters","Erin Loupe","34.28293","-85.1989","2025-08-01T17:54:14Z","Alan Branch","2025-09-12T18:02:28Z","Stevens Elise Key"
"Highland Park Family","F","34","Colette Anderson","","Tammy","531 Airline Drive","Ponca City","OK","74601","580-352-3588","","highlandparkfamily@gatewaymgt.com","Diana Stoflet","Erin Loupe","29.98318","-90.2649","2025-08-01T17:54:14Z","Alan Branch","2025-09-12T14:57:42Z","Stevens Elise Key"
"Highland Park Senior Village","62","50","Jennifer Doyle","","Bendetta","6785 Selman Drive","Douglasville","GA","30134","770-947-1838","770-212-2267","highland@gatewaymgt.com","Trisha Chauvin","Erin Loupe","33.74229","-84.7505","2025-08-01T17:54:14Z","Alan Branch","2025-09-12T18:04:14Z","Stevens Elise Key"
"Hill at Sand Mountain, The - Lease-up","F","56","Tracy Moualhi","Diana Street","Bendetta","114 Laverne Drive","Rainesville","AL","35986","256-273-8001","","hillatsandmountain@gatewaymgt.com","Anna Walters","Erin Loupe","43.23405","-77.6441","2025-08-01T17:54:14Z","Alan Branch","2025-09-12T18:05:05Z","Stevens Elise Key"
"Horizon Ridge","F","240","Linda Shepard","Karen Harris","Amber","1010 Horizon Ridge Drive","Hephzibah","GA","30815","706- 842-3939","(706) 842-3939","horizonridge@gatewaymgt.com","Sharon Waldo","Melissa Valley","33.40203","-82.1036","2025-08-01T17:54:14Z","Alan Branch","2025-09-12T18:08:06Z","Stevens Elise Key"
"Howell Senior School Apts","55","55","Ciera Armstead","","Kimberly","408 E Newton Street","Dothan","AL","36303","334-305-1229","334-828-7171","howellseniorschool@gatewaymgt.com","Ciera Armstead | Tere Dykes","Paula Hall","31.22895","-85.3885","2025-08-01T17:54:14Z","Alan Branch","2025-09-30T19:33:52Z","Amy Beans"
"Ivy Pointe Apts","F","56","Kimberly Fulpher","","Tammy","400 John Aldridge Dr.","Tuscumbia","AL","35674","256-314-0155","256-275-0006","ivy@gatewaymgt.com","Shirley Greer","Paula Hall","0","0","2025-08-01T17:54:14Z","Alan Branch","2025-09-12T14:59:08Z","Stevens Elise Key"
"Ivy Pointe II Apts.","F","48","Kimberly Fulpher","","Tammy","400 John Aldridge Dr.","Tuscumbia","AL","35674","256-314-0155","256-275-0006","ivy2@gatewaymgt.com","Shirley Greer","Paula Hall","34.72861","-87.68","2025-08-01T17:54:14Z","Alan Branch","2025-09-12T14:59:14Z","Stevens Elise Key"
"Jasmine Trails","F","72","Mandy Potter","","Gail","19451 Oak Rd West","Gulf Shores","AL","36542","251-929-9010","251-202-0156","jasminetrails@gatewaymgt.com","Kat Butts","Paula Hall","30.31384","-87.6923","2025-08-01T17:54:14Z","Alan Branch","2025-09-12T18:10:15Z","Stevens Elise Key"
"Jefferson Grove","F","160","Veronica Mann","DeNedra Pearson","Gail","414 Jefferson St","Newnan","GA","30263","470-299-7599","470-299-7599","jeffersongrove@gatewaymgt.com","Arglidian McElheney","Toni Raymond","0","0","2025-08-01T17:54:14Z","Alan Branch","2025-09-12T18:12:00Z","Stevens Elise Key"
"Jonesboro Road","55","110","JaniceTannehill","Amber Davis","Bendetta","3895 Jonesboro Road","Fairborn","GA","30213","470-915-3820","","jonesbororoad@gatewaymgt.com","Brenda Jackson","Toni Raymond","0","0","2025-08-01T17:54:14Z","Alan Branch","2025-09-12T18:12:38Z","Stevens Elise Key"
"Juanita Gardner","55","108","Precious Crouch","Antowyneisha Smith","Paulette","3650 Bakers Ferry Raod","Adamsville","GA","30331","470-763-1664","","juanitagardner@gatewaymgt.com","Arglidian McElheney","Toni Raymond","33.73263","-84.5739","2025-08-01T17:54:14Z","Alan Branch","2025-09-12T18:13:25Z","Stevens Elise Key"
"Kenyon at Cross Creek, The","F","168","Marquita Crosby","TBD","Bendetta","252 Cross Creek Rd.","Central","SC","29630","864-865-4401","","kenyonatcrosscreek@gatewaymgt.com","Natashia Thompson","Melissa Valley","35.20823","-83.8688","2025-08-01T17:54:14Z","Alan Branch","2025-09-12T18:18:59Z","Stevens Elise Key"
"Kinsey Cove","F","212","Pauline Kirkland","","Kimberly","1121 Kinsely Road","Dothan","AL","36303","334-792-4548","334-777-2005","kinseycove@gatewaymgt.com","Ciera Armstead | Tere Dykes","Paula Hall","31.23525","-85.3803","2025-08-01T17:54:14Z","Alan Branch","2025-09-30T19:34:01Z","Amy Beans"
"Kirby Creek Apts.","F","56","Belinda Willis","","Gail","105 Joyner Road","Cairo","GA","39828","229-377-4100","229-394-0091","kirbycreek@gatewaymgt.com","Tere Dykes","Paula Hall","-30.0015","30.9272","2025-08-01T17:54:14Z","Alan Branch","2025-09-12T18:20:26Z","Stevens Elise Key"
"Kirkwood Trail Apts","55","52","TBD","","Gail","133 Cason Road","Cedartown","GA","30125","770-749-9403","770-854-0826","kirkwood@gatewaymgt.com","Anna Walters","Erin Loupe","-26.2088","28.26686","2025-08-01T17:54:14Z","Alan Branch","2025-09-12T18:28:34Z","Stevens Elise Key"
"Lakeview Terrace","F","200","TBD","Satone-Brea Anthony","Tammy","200 Lakeview Terrace Drive","Augusta","GA","30909","762-253-3101","","lakeviewterrace@gatewaymgt.com","Sharon Waldo","Melissa Valley","28.96241","-81.6552","2025-08-01T17:54:14Z","Alan Branch","2025-10-01T14:00:31Z","Amy Beans"
"Laurel Ridge Development","F","70","Innocente Holloman","Jasmine Hood","Kimberly","101 Laurel Ridge Avenue W","LaGrange","GA","30240","706-882-7668","706-801-4351","laurelridge@gatewaymgt.com","Jonathan Marrero","Toni Raymond","41.96649","-71.7108","2025-08-01T17:54:14Z","Alan Branch","2025-09-12T18:33:48Z","Stevens Elise Key"
"Le Jolliet","F","264","Reve' Landry","Makenzie Ardoin","","4101 5th Avenue","Lake Charles","LA","70607","337-227-9889","","lejolliet@gatewaymgt.com","TBD","Erin Loupe","0","0","2025-08-01T17:54:14Z","Alan Branch","2025-09-29T14:20:22Z","Amy Beans"
"Legacy Universal -RVP Michelle Clark","C","350","Alfredo Etchegoyen","Dayna Dotel","NA","7488 Univeral Blvd.","Orlando","FL","32819","833-282-1905","","legacyuniversal@gatewaymgt.com","Jeyza Cartagena","Paula Hall","0","0","2025-08-01T17:54:14Z","Alan Branch","2025-09-12T15:02:19Z","Stevens Elise Key"
"Lory of Greenway Village, The","C","216","Lauren Avery","Tara Sloan","NA","179 Trail Loop Drive","Paducah","KY","42001","270-534-5976","","loryofgreenway@gatewaymgt.com","Jeyza Cartagena","Paula Hall","48.43201","-124.069","2025-08-01T17:54:14Z","Alan Branch","2025-09-16T13:05:21Z","Stevens Elise Key"
"Lory of Panama City, The","C","160","Rhonda Collins","Alexandria Dixon","NA","2121 Harrison Ave","Panama City","FL","32405","850-784-1366","","loryofpanamacity@gatewaymgt.com","Jeyza Cartagena","Paula Hall","30.18565","-85.66","2025-08-01T17:54:15Z","Alan Branch","2025-09-16T14:02:19Z","Stevens Elise Key"
"Lory of Tallahassee, The","C","324","Regina Murray","TBD","NA","2915 Sharer Rd","Tallahassee","FL","32312","850- 391-3030","","loryoftallahassee@gatewaymgt.com","Jeyza Cartagena","Paula Hall","30.48332","-84.2938","2025-08-01T17:54:15Z","Alan Branch","2025-09-16T14:03:03Z","Stevens Elise Key"
"Loxley Station Development","F","48","TBD","","Amber","63 Ribbon Rail Court","Loxley","AL","36551","251-960-3300","251-589-7919","loxley@gatewaymgt.com","Kat Butts","Paula Hall","30.63059","-87.7468","2025-08-01T17:54:15Z","Alan Branch","2025-09-16T13:08:16Z","Stevens Elise Key"
"Mallard Crossing","F","192","Ticoka Hines","Qairess Winston","","11320 Greenwell Springs Rd.","Baton Rouge","LA","70814","225-258-2602","","mallardcrossing@gatewaymgt.com","Tina Ard","Erin Loupe","0","0","2025-08-01T17:54:17Z","Alan Branch","2025-09-16T13:09:34Z","Stevens Elise Key"
"Mallard Lake Apts","F","72","TBD","TBD","Kimberly","110 Old Airport Road","LaGrange","GA","30240","706-443-5330","706-443-5331","mallardlake@gatewaymgt.com","Jonathan Marrero","Toni Raymond","1.307786","103.8863","2025-08-01T17:54:17Z","Alan Branch","2025-09-22T21:53:43Z","Amy Beans"
"Mandell, The","F","136","TBD","TBD","Becky","10888 Buddy Ellis Road","Denham Springs","LA","","225-664-5037","","themandell@gatewaymgt.com","Trisha Chauvin","Erin Loupe","30.45879","-90.9023","2025-08-01T17:54:17Z","Alan Branch","2025-09-23T22:24:48Z","Amy Beans"
"Maple Square","55","56","Yanna Ashe","Iris Guevara","Paulette","50 Nelson Drive","Jeferson","GA","30549","706-367-7850","706-616-6401","maplesquare@gatewaymgt.com","Brandi Harris","Toni Raymond","36.55371","-78.1073","2025-08-01T17:54:17Z","Alan Branch","2025-09-16T13:10:36Z","Stevens Elise Key"
"Mary Leila Lofts","F","71","Marqueta Leak","","Becky","316 North West Street","Greensboro","GA","30642","706-454-5047","","maryleilalofts@gatewaymgt.com","Sharon Waldo","Melissa Valley","0","0","2025-08-01T17:54:17Z","Alan Branch","2025-09-16T13:11:15Z","Stevens Elise Key"
"Maxwell, The","C","200","Jessika Williams","Savannah Holden","NA","100 Woodrow Wilson way NW","Rome","GA","30165","706-528-1110","","TheMaxwell@gatewaymgt.com","Jeyza Cartagena","Paula Hall","0","0","2025-08-01T17:54:18Z","Alan Branch","2025-09-16T14:01:02Z","Stevens Elise Key"
"Meadowood Creek","55","42","Barbara Barron","","Paulette","676 County Highway 4","Winfield","AL","35594","205-634-4501","","meadowoodcreek@gatewaymgt.com","T'arra Brown","Erin Loupe","33.94605","-87.8457","2025-08-01T17:54:18Z","Alan Branch","2025-09-16T13:12:08Z","Stevens Elise Key"
"Meadows at Nicholson","F","204","Sharonda Brooks","Shirmelle Dyer","","11777 Nicholson Drive","Baton Rouge","LA","70810","225-314-9220","","meadowsatnicholson@gatewaymgt.com","Tina Ard","Erin Loupe","0","0","2025-08-01T17:54:18Z","Alan Branch","2025-09-16T13:12:50Z","Stevens Elise Key"
"Newport Trace","55","42","Tammy Waller","","Gail","101 Coach Lee Boulevard","Statesboro","GA","30458","912-243-9096","912-385-0214","newporttrace@gatewaymgt.com","Chantelle Boone","Toni Raymond","53.53447","-2.4368","2025-08-01T17:54:18Z","Alan Branch","2025-09-16T13:13:45Z","Stevens Elise Key"
"Northwinds","55","102","Jeanette Jones","Dariana Lonon","Bendetta","247 Northwinds Blvd","Carrolton","GA","30117","470-781-7466","470-781-7466","northwinds@gatewaymgt.com","Trisha Chauvin","Erin Loupe","33.60829","-85.0807","2025-08-01T17:54:18Z","Alan Branch","2025-09-16T13:14:30Z","Stevens Elise Key"
"Oakland Mill","55","42","Demetria Byrd","","Tammy","101 Nelson Drive","Lincolnton","NC","28092","704-736-1222","980-284-6939","oaklandmills@gatewaymgt.com","Melissa Valley","Melissa Valley","55.00262","-7.2885","2025-08-01T17:54:18Z","Alan Branch","2025-09-16T13:15:03Z","Stevens Elise Key"
"Oakleigh Crossing","F","56","TBD","","Mitzi","1963 Hwy 22W","Alexander City","AL","35010","256-853-0940","","oakleighcrossing@gatewaymgt.com","Trisha Chauvin","Erin Loupe","30.43614","-90.2424","2025-08-01T17:54:18Z","Alan Branch","2025-09-12T15:08:13Z","Stevens Elise Key"
"Oleander Park Apts.","55","56","Chiquita Hill","","Tammy","7646 Cottage Hill Road","Mobile","AL","36695","251-639-1355","251-589-7911","oleander@gatewaymgt.com","Kimberly Tunstall","Paula Hall","30.6381","-88.2199","2025-08-01T17:54:18Z","Alan Branch","2025-09-16T13:15:54Z","Stevens Elise Key"
"Orchard Park","F","10","Susan Moncrief","","Tammy","629 State Hwy 21 S","Hayneville","AL","36040","334-290-7744","334-513-8689","orchard@gatewaymgt.com","Kat Butts","Paula Hall","32.17882","-86.5908","2025-08-01T17:54:18Z","Alan Branch","2025-09-16T13:18:31Z","Stevens Elise Key"
"Orchard View","55","56","Tracy Moualhi","","Gail","82 Snodgrass Road","Scottsboro","AL","35769","256-844-2288","","orchardview@gateaymgt.com","Anna Walters","Erin Loupe","-37.662","176.057","2025-08-01T17:54:18Z","Alan Branch","2025-09-16T13:19:11Z","Stevens Elise Key"
"Palladian Apts., The","F","80","Chiquita Hill","Kiosha Patterson","Paulette","2225 Leroy Stevens Rd.","Mobile","AL","36695","251-725-0046","251-206-6376","palladian@gatewaymgt.com","Kimberly Tunstall","Paula Hall","30.64693","-88.232","2025-08-01T17:54:18Z","Alan Branch","2025-09-16T13:21:51Z","Stevens Elise Key"
"Palladian at Fairhope","C","62","TBD","","NA","8132 Gayfer Road Ext","Fairhope","AL","36532","251-210-6038","251-295-9299","palladianfairhope@gatewaymgt.com","Kimberly Tunstall","Paula Hall","30.53037","-87.8833","2025-08-01T17:54:18Z","Alan Branch","2025-09-16T13:22:36Z","Stevens Elise Key"
"Palladian II Apts.","F","32","Chiquita Hill","Kiosha Patterson","Paulette","2135 Leroy Stevens Rd","Mobile","AL","36695","251-725-0046","251-206-6376","palladian2@gatewaymgt.com","Kimberly Tunstall","Paula Hall","30.64743","-88.232","2025-08-01T17:54:18Z","Alan Branch","2025-09-16T13:23:22Z","Stevens Elise Key"
"Peach Orchard","F","240","Shelia Yancey","Phaedra Berry","Tammy","3630 Peach Orchard Rd","Augusta","GA","30906","706-432-2121","(706) 550-6383","peachorchard@gatewaymgt.com","Sharon Waldo","Melissa Valley","33.36913","-82.0336","2025-08-01T17:54:18Z","Alan Branch","2025-09-16T13:25:31Z","Stevens Elise Key"
"Peaks at Manning, The","55","42","Minnie Sabb","","Tammy","121 Kennedy Lane","Manning","SC","29201","803-830-4995","(803) 830-4995","peaksatmanning@gatewaymgt.com","Natashia Thompson","Melissa Valley","47.46416","-52.7136","2025-08-01T17:54:18Z","Alan Branch","2025-09-16T13:26:19Z","Stevens Elise Key"
"Peaks of Cornelia","F","80","Adrienne Collins","","TBD","100 Peaks Circle","Cornelia","GA","30531","706-778-6000","","peaksofcornelia@gatewaymgt.com","Brandi Harris","Toni Raymond","0","0","2025-08-01T17:54:18Z","Alan Branch","2025-09-16T13:26:58Z","Stevens Elise Key"
"Peaks of Dahlonega - Lease-up","F","60","Juanita Cunningham","","Gail","4000 Peaks Circle","Dahlonega","GA","30533","762-274-1400","","peaksofdahlonega@gatewaymgt.com","T'arra Brown","Erin Loupe","0","0","2025-08-01T17:54:18Z","Alan Branch","2025-09-16T13:27:57Z","Stevens Elise Key"
"Peaks of Dawson","F","80","Renee Longshore","","Becky","6001 Peaks Circle","Dawsonville","GA","30534","706-429-0090","","peaksofdawson@gatewaymgt.com","T'arra Brown","Erin Loupe","0","0","2025-08-01T17:54:18Z","Alan Branch","2025-09-16T13:28:32Z","Stevens Elise Key"
"Peaks of Oakwood","F","84","Chikere Fedrick","","TBD","3500 Peaks Circle","Oakwood","GA","30542","678-696-5071","","peaksofoakwood@gatewaymgt.com","Brandi Harris","Toni Raymond","0","0","2025-08-01T17:54:18Z","Alan Branch","2025-09-16T13:29:06Z","Stevens Elise Key"
"Pebble Creek Apts.","F","24","Christina Dempsey","","Gail","803 Vanity Fair Ave.","Butler","AL","36904","205-459-7488","205-459-7488","pebble@gatewaymgt.com","Trisha Chauvin","Erin Loupe","32.09666","-88.2104","2025-08-01T17:54:18Z","Alan Branch","2025-09-16T13:30:29Z","Stevens Elise Key"
"Pelican Landing","F","64","Reagan Abner","","Amber","860 West Point Plaza","Mobile","AL","36608","251-639-9900","(251) 929-4721","pelicanlanding@gatewaymgt.com","Kat Butts","Paula Hall","30.6709","-88.2504","2025-08-01T17:54:18Z","Alan Branch","2025-09-16T13:31:20Z","Stevens Elise Key"
"Peyton Ridge Village","55","56","Porshis Brooks","","Kimberly","14928 Peyton Drive","Athens","AL","35613","256-278-3400","256-278-3400","peytonridge@gatewaymgt.com","Shirley Greer","Paula Hall","33.98193","-117.733","2025-08-01T17:54:18Z","Alan Branch","2025-09-16T13:32:18Z","Stevens Elise Key"
"Pinewood Village","55","64","Tanisha Cummings","KiJana Glover","Amber","755 S. Rogers Street","Pooler","GA","31322","912-348-2281","912-225-6112","pinewood@gatewaymgt.com","Chantelle Boone","Toni Raymond","39.15855","-86.5383","2025-08-01T17:54:18Z","Alan Branch","2025-09-16T13:33:31Z","Stevens Elise Key"
"Pinewood Village II","55","60","Tanisha Cummings","KiJana Glover","Amber","755 S. Rogers Street","Pooler","GA","31322","912-348-2281","912-225-6112","pinewood@gatewaymgt.com","Chantelle Boone","Toni Raymond","39.15855","-86.5383","2025-08-01T17:54:19Z","Alan Branch","2025-09-16T13:33:37Z","Stevens Elise Key"
"Port Royal Apts","F","192","LaQuechia Jackson-Robertson","Jennifer Perry","","6454 Airline Hwy.","Baton Rouge","LA","70805","225-930-8183","","portroyal@gatewaymgt.com","Tina Ard","Erin Loupe","0","0","2025-08-01T17:54:19Z","Alan Branch","2025-09-23T20:34:13Z","Amy Beans"
"Powell Place Apts","F","64","Kindell Nelson","","Paulette","200 Ward Drive","Barnesville","GA","30204","770-358-9080","470-205-2683","powellplace@gatewaymgt.com","Trisha Chauvin","Erin Loupe","40.29238","-78.4576","2025-08-01T17:54:19Z","Alan Branch","2025-09-16T13:35:08Z","Stevens Elise Key"
"Preston Place Apts","F","40","Jana Fletcher","","Paulette","100 Phillips Dr","Quitman","GA","31643","229-605-0040","229-434-8199","prestonplace@gatewaymgt.com","Tere Dykes","Paula Hall","27.99615","-82.2914","2025-08-01T17:54:19Z","Alan Branch","2025-09-16T13:35:26Z","Stevens Elise Key"
"Red Cedar Village","RD-62","40","Pamela Minix","","Amber","20879 Red Cedar Drive","Harrah","OK","73045","405-708-6055","","redcedarvillage@gatewaymgt.com","Diana Stoflet","Erin Loupe","39.04024","-77.5741","2025-08-01T17:54:19Z","Alan Branch","2025-09-16T13:38:12Z","Stevens Elise Key"
"Reserve at Grant Road","55","122","Aja Parker","Crystal Rivers","Gail","4209 Grant Road","Ellenwood","GA","30294","770-742-2001","770-742-2003","reserveatgrantroad@gatewaymgt.com","Brenda Jackson","Toni Raymond","34.06313","-79.5897","2025-08-01T17:54:19Z","Alan Branch","2025-09-16T13:39:25Z","Stevens Elise Key"
"Rivers Edge","F","48","Destiney Taylor","","Amber","1416 Main Street East","Hartselle","AL","35640","256-792--2800","256-567-3475","riversedge@gatewaymgt.com","Shirley Greer","Paula Hall","43.53562","-79.8581","2025-08-01T17:54:19Z","Alan Branch","2025-09-16T16:05:20Z","Amy Beans"
"Rose Rock Cottages","62","36","Bonnie Westmoe","","Tammy","1014 Rose Rock Lane","Noble","OK","73068","405-310-1676","","roserock@gatewaymgt.com","Diana Stoflet","Erin Loupe","35.12562","-97.3849","2025-08-01T17:54:19Z","Alan Branch","2025-09-16T13:40:33Z","Stevens Elise Key"
"Shellbrooke Pointe Apts.","F","96","Barbara Butts","Hether Abrams","Bendetta","7684 Twin Beach Road","Fairhope","AL","36532","251-990-6262","251-206-6371","shellbrooke@gatewaymgt.com","Kimberly Tunstall","Paula Hall","30.49854","-87.8915","2025-08-01T17:54:19Z","Alan Branch","2025-09-16T13:42:01Z","Stevens Elise Key"
"Sheppard Station Dev.","55","65","Monica Anderson","","Amber","215 Brighton Woods Dr.","Pooler","GA","31322","912-748-0495","912-297-6755","sheppard@gatewaymgt.com","Chantelle Boone","Toni Raymond","32.11529","-81.2671","2025-08-01T17:54:19Z","Alan Branch","2025-09-16T13:43:00Z","Stevens Elise Key"
"Shoals Mill Development","S","46","Cindy Knowles","","Bendetta","55 Coby Lane","Columbiana","AL","35051","205-670-5111","205-671-0100","shoalsmill@gatewaymgt.com","T'arra Brown","Erin Loupe","31.84885","-81.2949","2025-08-01T17:54:19Z","Alan Branch","2025-09-16T13:43:59Z","Stevens Elise Key"
"Shoals Mill Village","55","30","Cindy Knowles","","Bendetta","300 Shoals Mill Lane","Columbiana","AL","35051","205-235-6880","205-671-0100","shoalsmill@gatewaymgt.com","T'arra Brown","Erin Loupe","33.85521","-84.57","2025-08-01T17:54:19Z","Alan Branch","2025-09-16T13:44:43Z","Stevens Elise Key"
"SkyHouse RVP Michelle Clark","C","320","William Cruz","Bryan Carmenate","NA","335 N Magnolia Ave","Orlando","FL","32801","407-650-9005","","skyhouse@gatewaymgt.com","Jeyza Cartagena","Paula Hall","28.54701","-81.3771","2025-08-01T17:54:19Z","Alan Branch","2025-09-16T13:45:53Z","Stevens Elise Key"
"Skyline Trace","F","64","Yanna Ashe","","Gail","600 Ridge Rd.","Monroe","GA","30655","678-635-8808","678-391-4013","skyline@gatewaymgt.com","Brandi Harris","Toni Raymond","33.79739","-83.724","2025-08-01T17:54:19Z","Alan Branch","2025-09-16T13:46:38Z","Stevens Elise Key"
"South Pointe Development","F","47","Tabitha Borden","","Bendetta","203 Shiloh Creek Drive","Calera","AL","35040","205-668-1196","205-686-4532","southpointe@gatewaymgt.com","T'arra Brown","Erin Loupe","33.08368","-86.7525","2025-08-01T17:54:19Z","Alan Branch","2025-09-16T13:47:31Z","Stevens Elise Key"
"South Rossville Senior Village (acquisition eff. 10/14/25)","S","60","TBD","TBD","TBD","1300 McFarland Avenue","Rossville","GA","30741","706-861-3934","","southrossville@gatewaymgt.com","Anna Walters","Erin Loupe","","","2025-09-12T17:14:27Z","Amy Beans","2025-09-12T17:16:35Z","Amy Beans"
"Sovereign at North Bay - Lease up","F","144","Gloria Hurley","","Paulette","1800 Florida Avenue","Panama City","FL","32405","850-784-7701","","northbay@gatewaymgt.com","Ciera Armstead | Tere Dykes","Paula Hall","0","0","2025-08-01T17:54:19Z","Alan Branch","2025-09-30T19:34:18Z","Amy Beans"
"Sterling Oaks","F","56","Dara Gamble","","Bendetta","131 Armstrong Drive","Spindale","NC","28160","828-214-7381","828-220-3536","sterlingoaks@gatewaymgt.com","Melissa Valley","Melissa Valley","40.75304","-79.6384","2025-08-01T17:54:19Z","Alan Branch","2025-09-16T13:50:09Z","Stevens Elise Key"
"Stoney Creek","55","44","Donna Faulk","","Gail","317 Plaza Road","Laurinburg","NC","28352","910- 506-2254","","stoneycreek@gatewaymgt.com","Melissa Valley","Melissa Valley","40.94235","-74.121","2025-08-01T17:54:19Z","Alan Branch","2025-09-16T13:52:04Z","Stevens Elise Key"
"Stony Ridge Apts","F","56","Porsche Kincaid","","Bendetta","108 Lincoln Street","Hogansville","GA","30230","706-637-9300","706-813-4344","stonyridge@gatewaymgt.com","Jonathan Marrero","Toni Raymond","42.24716","-70.898","2025-08-01T17:54:19Z","Alan Branch","2025-09-16T13:52:44Z","Stevens Elise Key"
"Stony Ridge Apts II","F","44","Porsche Kincaid","","Bendetta","108 Lincoln Street","Hogansville","GA","30230","706-785-9050","706-813-4344","stonyridge@gatewaymgt.com","Jonathan Marrero","Toni Raymond","30.42107","-84.2826","2025-08-01T17:54:19Z","Alan Branch","2025-09-16T13:53:30Z","Stevens Elise Key"
"Stove Lofts","C","185","Ashley Anderson","Natalea Ehrhardt","NA","401 S 2nd Street","Leavenworth","KS","66048","913-682-0900","","stovelofts@gatewaymgt.com","Jeyza Cartagena","Paula Hall","38.25209","-85.7529","2025-08-01T17:54:19Z","Alan Branch","2025-09-16T13:56:38Z","Stevens Elise Key"
"Sullivan Village","55","56","Robert Kiker","","Paulette","104 Carrie Lane","Tuscumbia","AL","35674","256-978-5042","256-585-6652","sullivanvillage@gatewaymgt.com","Shirley Greer","Paula Hall","34.71804","-87.6918","2025-08-01T17:54:23Z","Alan Branch","2025-09-16T16:03:44Z","Amy Beans"
"Sunrise View","F","240","Loni Richardson","TBD","Paulette","3814 Redan Road","Decatur","GA","30032","404-905-2250","404-905-2250","sunriseview@gatewaymgt.com","Arglidian McElheney","Toni Raymond","33.7623","-84.2356","2025-08-01T17:54:23Z","Alan Branch","2025-09-24T18:20:43Z","Amy Beans"
"Sweetwater Terrace","55","165","Stefanie Love","TBD","Becky","3555 Sweetwater Rd","Duluth","GA","30096","770-921-4488","(470) 387-9488","sweetwaterterrace@gatewaymgt.com","Jonathan Marrero","Toni Raymond","33.94548","-84.1219","2025-08-01T17:54:23Z","Alan Branch","2025-09-16T13:58:17Z","Stevens Elise Key"
"Tattnall Place","F","97","Jennifer Glover","Tina Paludo-Hart","Amber","150 Calhoun Way","Macon","GA","31201","478-741-4011","478-845-4800","tattnall@gatewaymgt.com","Chantelle Boone","Toni Raymond","34.81449","-82.5246","2025-08-01T17:54:23Z","Alan Branch","2025-09-16T13:58:37Z","Stevens Elise Key"
"The Peaks of Tazewell","F","56","Maria Daniels","","Paulette","474 Tom Ball Road","Tazewell","TN","37879","423-259-8118","423-453-3049","tazewell@gatewaymgt.com","Anna Walters","Erin Loupe","36.43394","-83.5719","2025-08-01T17:54:23Z","Alan Branch","2025-09-16T14:05:02Z","Stevens Elise Key"
"Tranquility at Decatur - Lease up","F","160","Dorea Chaney","Elizabeth Burney","Tammy","2747 Kelly Lake Road","Decatur","GA","30035","943-200-9501","","tranquilityatdecatur@gatewaymgt.com","Jonathan Marrero","Toni Raymond","33.71623","-84.2776","2025-08-01T17:54:23Z","Alan Branch","2025-09-16T14:06:45Z","Stevens Elise Key"
"Tranquility at Ferry Pass","F","36","Tieannaca Lewis","Santiria Williams","Bendetta","8319 Carl Dean Street","Pensacola","FL","32514","850-462-3001","","tranquilityatferrypass@gatewaymgt.com","Kat Butts","Paula Hall","30.51382","-87.2089","2025-08-01T17:54:23Z","Alan Branch","2025-09-24T18:21:41Z","Amy Beans"
"Tranquility at Griffin","F","120","Brittnie Colin","TBD","Becky","2173 North Expressway","Griffin","GA","30223","770-615-8600","770-615-8600","tranquilitygriffin@gatewaymgt.com","Brenda Jackson","Toni Raymond","33.29135","-84.2931","2025-08-01T17:54:23Z","Alan Branch","2025-09-16T14:08:36Z","Stevens Elise Key"
"Tranquility at Hope School","F","30","Jennifer Floyd","","Kimberly","1999 Hope School Drive","Marianna","FL","32448","850-526-0603","850-387-2866","tranquilityathopeschool@gatewaymgt.com","Ciera Armstead | Tere Dykes","Paula Hall","30.71013","-85.189","2025-08-01T17:54:23Z","Alan Branch","2025-09-30T19:34:37Z","Amy Beans"
"Tranquility at Hope School II","F","32","Jennifer Floyd","","Kimberly","1999 Hope School Drive","Marianna","FL","32448","850-526-0603","850-387-2866","tranquilityathopeschool@gatewaymgt.com","Ciera Armstead | Tere Dykes","Paula Hall","30.71013","-85.189","2025-08-01T17:54:23Z","Alan Branch","2025-09-30T19:34:51Z","Amy Beans"
"Tranquility at Milton","F","72","Tieannaca Lewis","Santiria Williams","Paulette","4946 Lambert Lane","Milton","FL","32570","850-400-8050","","tranquilityatmilton@gatewaymgt.com","Kat Butts","Paula Hall","32.39642","-111.071","2025-08-01T17:54:23Z","Alan Branch","2025-09-16T14:11:10Z","Stevens Elise Key"
"Tucker Cottages","55","50","Innocente Holloman","Jasmine Hood","Amber","301 Jordan Way","LaGrange","GA","30240","706-443-5131","706-526-4776","tuckercottages@gatewaymgt.com","Jonathan Marrero","Toni Raymond","49.40082","-123.543","2025-08-01T17:54:23Z","Alan Branch","2025-09-16T14:12:06Z","Stevens Elise Key"
"Union at Stonecrest","55","122","Stephanie Davis","Terry Mayes","Amber","6565 Chupp Road","Stonecrest","GA","30058","470-610-6060","","unionatstonecrest.com","Brenda Jackson","Toni Raymond","33.70477","-84.124","2025-08-01T17:54:23Z","Alan Branch","2025-09-16T14:12:28Z","Stevens Elise Key"
"Union Landing","F","240","Sarena Harvey","Sheannette Hall","Britney","4712 Flat Shoals Road","Union City","GA","30291","770-644-0700","770-644-0700","unionlanding@gatewaymgt.com","Arglidian McElheney","Toni Raymond","33.69952","-84.2663","2025-08-01T17:54:23Z","Alan Branch","2025-09-16T14:14:00Z","Stevens Elise Key"
"Valley Ridge Apts.","F","80","TBD","","Amber","950 Mooty Bridge Rd","LaGrange","GA","30240","706-882-1815","706-882-5795","valleyridge@gatewaymgt.com","Jonathan Marrero","Toni Raymond","33.05795","-85.0328","2025-08-01T17:54:23Z","Alan Branch","2025-09-16T14:14:45Z","Stevens Elise Key"
"Valley Senior Village","55","56","Jeanette Jones","","Paulette","2107 40th Street","Valley","AL","36854","334-219-4900","334-219-4900","valleysenior@gatewaymgt.com","Trisha Chauvin","Erin Loupe","40.63545","-73.9791","2025-08-01T17:54:23Z","Alan Branch","2025-09-16T14:15:34Z","Stevens Elise Key"
"Verandah Apts., The","55","40","TBD","TBD","Kimberly","821 N. Mayo St.","Americus","GA","31709","229-931-0016","229-213-0508","verandah@gatewaymgt.com","Chantelle Boone","Toni Raymond","28.09992","-82.7778","2025-08-01T17:54:23Z","Alan Branch","2025-09-24T16:39:54Z","Amy Beans"
"Village at Blackshear","F","64","Jenny Starling","Nealie Corbett","Bendetta","940 Ware Street","Blackshear","GA","31516","912-449-5291","912-208-3900","blackshear@gatewaymgt.com","Tere Dykes","Paula Hall","34.84556","-82.4135","2025-08-01T17:54:23Z","Alan Branch","2025-09-16T14:17:19Z","Stevens Elise Key"
"Village at Wedgewood","55","42","Belinda Willis","","Kimberly","307 17th Ave. N.W.","Cairo","GA","39827","229-307-0092","229-471-1353","villagewedge@gatewaymgt.com","Tere Dykes","Paula Hall","51.0677","-114.068","2025-08-01T17:54:24Z","Alan Branch","2025-09-16T14:18:45Z","Stevens Elise Key"
"Village on Park","F","64","Melissa Folsom","","Paulette","908 West Park Street","Hahira","GA","31632","229-299-4010","229-299-4010","villageonpark@gatewaymgt.com","Tere Dykes","Paula Hall","40.11737","-88.2194","2025-08-01T17:54:24Z","Alan Branch","2025-09-16T14:19:01Z","Stevens Elise Key"
"Villages at Congaree Pointe","F","240","Lakeisha Thompson","Catherine Wroten","Kimberly","2701 Atlas Road","Columbia","SC","29209","803-881-3950","","congareepointe@gatewaymgt.com","Natashia Thompson","Melissa Valley","33.9399","-80.9797","2025-08-01T17:54:24Z","Alan Branch","2025-09-16T14:20:39Z","Stevens Elise Key"
"Villages at Stone Mountain, The","55","118","TBD","TBD","Becky","5734 Rockbridge Road","Stone Mountain","GA","30087","470-610-6150","470-670-6151","villageatstonemountain@gatewaymgt.com","Jonathan Marrero","Toni Raymond","33.78777","-84.1613","2025-08-01T17:54:24Z","Alan Branch","2025-09-30T17:19:03Z","Amy Beans"
"Villas of Benedictine","55","55","TBD","","Gail","2000 W Warner","Guthrie","OK","73044","405-293-9046","","villasofbenedictine@gatewaymgt.com","Diana Stoflet","Erin Loupe","41.95691","-87.6788","2025-08-01T17:54:24Z","Alan Branch","2025-09-16T14:22:51Z","Stevens Elise Key"
"Villas on Forsyth","55","42","Kindell Nelson","","Gail","101 Virginia Ave","Barnesville","GA","30204","770-358-4880","470-317-2815","villasforsyth@gatewaymgt.com","Trisha Chauvin","Erin Loupe","36.97568","-82.5749","2025-08-01T17:54:24Z","Alan Branch","2025-09-16T14:23:43Z","Stevens Elise Key"
"Vinings of Augusta","5","122","Kelly Bell","Gabriela Berry","Amber","3696 Peach Orchard Road","Augusta","GA","30906","762-253-2500","470-253-2501","viningsofaugusta@gatewaymgt.com","Sharon Waldo","Melissa Valley","33.36602","-82.0422","2025-08-01T17:54:24Z","Alan Branch","2025-09-16T14:26:37Z","Stevens Elise Key"
"Walden Crest","F","56","Marian Franco","","Gail","350 Mill Street","Hohenwald","TN","38462","931-329-3201","","waldencrest@gatewaymgt.com","Shirley Greer","Paula Hall","30.32361","-97.7499","2025-08-01T17:54:24Z","Alan Branch","2025-09-16T14:27:21Z","Stevens Elise Key"
"Waring I","F","40","Jenny Starling","Nealie Corbett","Gail","812 E. Waring St.","Waycross","GA","31501","901-285-0373","","waring2@gatewaymgt.com","Tere Dykes","Paula Hall","31.24077","-82.3555","2025-08-01T17:54:24Z","Alan Branch","2025-09-16T14:28:44Z","Stevens Elise Key"
"Waring II Apts.","55","36","Jenny Starling","Nealie Corbett","Gail","806 E Waring Street","Waycross","GA","31501","912-283-1233","912-209-0125","waring2@gatewaymgt.com","Tere Dykes","Paula Hall","31.24077","-82.3555","2025-08-01T17:54:24Z","Alan Branch","2025-09-16T14:29:20Z","Stevens Elise Key"
"Waterford Farms","F","48","Taylor Johns","","Amber","644 Cullman Road SW","Arab","AL","35016","256-586-5004","256-203-5005","waterford@gatewaymgt.com","Shirley Greer","Paula Hall","34.3171","-86.5053","2025-08-01T17:54:24Z","Alan Branch","2025-09-16T14:30:02Z","Stevens Elise Key"
"Ways Station","55","84","Tanisha Cummings","","Kimberly","201 Kroger Drive","Richmond Hill","GA","31324","912-598-4100","(725) 223-1033","waysstation@gatewaymgt.com","Chantelle Boone","Toni Raymond","31.95432","-81.3126","2025-08-01T17:54:24Z","Alan Branch","2025-09-16T14:30:17Z","Stevens Elise Key"
"Windcliff Apts.","62","56","Stacey Watson","","Gail","150 Gabriel Circle","Gainesville","GA","30501","770-503-0568","770-450-6016","windcliff@gatewaymgt.com","Brandi Harris","Toni Raymond","34.33133","-83.80438","2025-08-01T17:54:24Z","Alan Branch","2025-09-16T14:31:38Z","Stevens Elise Key"
"Wood Meadow","F","80","Seanta Cooper","","Gail","1133 Coldbrook Station Circle","Port Wentworth","GA","31407","912-387-0500","912-387-0500","woodmeadow@gatewaymgt.com","Chantelle Boone","Toni Raymond","32.19673","-81.1923","2025-08-01T17:54:24Z","Alan Branch","2025-09-16T14:32:24Z","Stevens Elise Key"
"Woodcrest Apts","F","48","Brandon Douglas","","","1682 N. Lobdell Ave.","Baton Rouge","LA","70806","225-258-2690","","woodcrest@gatewaymgt.com","Tina Ard","Erin Loupe","0","0","2025-08-01T17:54:24Z","Alan Branch","2025-09-16T14:33:26Z","Stevens Elise Key"
"Woodlawn Terrace","55","60","Jana Fletcher","","Paulette","1211 Barack Obama Blvd.","Valdosta","GA","31601","229-245-9920","229-255-3103","woodlawn@gatewaymgt.com","Tere Dykes","Paula Hall","37.13955","-92.2679","2025-08-01T17:54:24Z","Alan Branch","2025-09-16T14:33:44Z","Stevens Elise Key"

